{"type": "FeatureCollection", "features": [{"type": "Feature", "properties": {"name": "Hoboken (buffered)", "bbox": [-74.04529041686368, 40.729526682420946, -74.01318174532027, 40.75999161136023]}, "geometry": {"type": "Polygon", "coordinates": [[[-74.04529041686368, 40.73768150325339], [-74.04411940998158, 40.735808884598185], [-74.04285333202513, 40.73531467962567], [-74.04176558733272, 40.735113882108664], [-74.04014829535613, 40.73533750224155], [-74.03885165507049, 40.73558171018046], [-74.03745449207383, 40.73492944136996], [-74.03578478563679, 40.73438859394769], [-74.03417833656701, 40.7338953423826], [-74.03402343395148, 40.73384768010878], [-74.03344377491169, 40.73366878522034], [-74.0328058155622, 40.73347338491098], [-74.03265116867966, 40.73341086491479], [-74.03241104652446, 40.733316212104114], [-74.03184150524287, 40.73308979045225], [-74.03120924188032, 40.7328417471997], [-74.03159197006998, 40.73372911361494], [-74.03097464670445, 40.73444378230091], [-74.03196911376804, 40.73369199646423], [-74.03131660591382, 40.73254228859834], [-74.02336564962278, 40.730141501490486], [-74.0200054712345, 40.729526682420946], [-74.01615601613999, 40.74336001475984], [-74.01318174532027, 40.75722716893713], [-74.01841192898458, 40.75815021155582], [-74.02308232906884, 40.758701343199675], [-74.02374509366803, 40.758688225061604], [-74.02391730907097, 40.75868206884976], [-74.026410020047, 40.75840582153137], [-74.02690957430039, 40.75822145598539], [-74.02667409956416, 40.75819844160481], [-74.02709010987712, 40.75846728027336], [-74.02724563469219, 40.758564966334575], [-74.02753928406965, 40.75878327115431], [-74.0286920526364, 40.75920281390132], [-74.02948545055632, 40.759082562569894], [-74.02880032947074, 40.75898969449399], [-74.02936996465901, 40.759662058868535], [-74.0300644034312, 40.75967817376823], [-74.02974393203301, 40.759690197097584], [-74.03018398557553, 40.75974147492301], [-74.03075050502989, 40.75979069068559], [-74.03278949794766, 40.75999161136023], [-74.03308385553755, 40.75969244148366], [-74.03357579378819, 40.75960256422781], [-74.03397296592277, 40.75896722828667], [-74.03468466715508, 40.757989642980995], [-74.03467608022554, 40.75800419596368], [-74.03493097594469, 40.75772504263192], [-74.0352256771789, 40.757264956547104], [-74.03553175992953, 40.756566971040705], [-74.03564870750883, 40.75635994434447], [-74.03590910860659, 40.7558956284537], [-74.0362105836806, 40.75534171494293], [-74.03626608777775, 40.75524768954812], [-74.03749504024007, 40.75316215151797], [-74.03771442490105, 40.75280770872252], [-74.03842056273439, 40.751661711304], [-74.03843961281954, 40.75163140425916], [-74.03880527736526, 40.75102641225557], [-74.0388537593744, 40.7509466193612], [-74.03930949334938, 40.750163526463844], [-74.03965713595038, 40.749380473022505], [-74.03979387441656, 40.749100744258094], [-74.04014989028845, 40.74841256828525], [-74.04022264462985, 40.74827104431636], [-74.04039998452278, 40.74792800660395], [-74.04070705964315, 40.747425544956606], [-74.04091017063712, 40.74716389437582], [-74.04094413558808, 40.747119307776025], [-74.04098390436367, 40.74706623918656], [-74.04126547853815, 40.74674497717461], [-74.04187305732866, 40.74603263737889], [-74.04219190622729, 40.74565723690659], [-74.04244152106315, 40.7453397510879], [-74.04270655975537, 40.74500242666011], [-74.04284596461837, 40.74480257038859], [-74.04301689736833, 40.74455568910761], [-74.04331318024431, 40.74404917585406], [-74.0433564625117, 40.743963165841315], [-74.04357126316158, 40.74352549990044], [-74.04374480636127, 40.74294302284525], [-74.04364344303434, 40.74172622537075], [-74.04352538878629, 40.741506542592845], [-74.04425178259534, 40.740967454312596], [-74.04465522035869, 40.74053629378381], [-74.04526933029173, 40.73957328340907], [-74.04510709581395, 40.73850258475331], [-74.04512566147496, 40.738433098857314], [-74.04507111886248, 40.738269230153705], [-74.04529041686368, 40.73768150325339]]]}}]}